{
  "norad_id": 66234,
  "name": "STARLINK-35537",
  "history": [
    {
      "epoch": "2026-03-28T19:02:20.502240Z",
      "apogee_km": 475.9034265337732,
      "perigee_km": 474.46875187827845,
      "latitude_deg": 2.9276839019761947e-05,
      "longitude_deg": 83.20845481707111,
      "height_km": 476.0822036156225,
      "semi_major_axis_km": 6853.3230892060255,
      "eccentricity": 0.00010467,
      "inclination_deg": 53.1577,
      "raan_deg": 195.0025,
      "arg_perigee_deg": 89.839,
      "mean_anomaly_deg": 270.2731,
      "mean_motion_rev_day": 15.30209706
    }
  ]
}